ONEWEB-0144             
1 47290U 20100AJ  25056.80820914 -.00000072  00000+0 -23587-3 0  9993
2 47290  87.8805  85.4733 0001919  84.0232 276.1115 13.12444577202082
ONEWEB-0145             
1 47291U 20100AK  25056.55031076 -.00000151  00000+0 -45403-3 0  9998
2 47291  87.8805  85.5502 0001920  90.5208 269.6140 13.12442137202248
ONEWEB-0146             
1 47292U 20100AL  25056.77578088  .00000071  00000+0  16085-3 0  9995
2 47292  87.8804  85.4908 0001965 105.4487 254.6859 13.12441187202189
ONEWEB-0147             
1 47293U 20100AM  25056.81795359  .00000201  00000+0  52423-3 0  9994
2 47293  87.8802  85.4665 0002169  90.1139 270.0238 13.12442992202086
ONEWEB-0115             
1 48042U 21025A   25056.53219848  .00000170  00000+0  42921-3 0  9994
2 48042  87.8883  54.9704 0001858  89.7464 270.3878 13.13469262191026
ONEWEB-0152             
1 48043U 21025B   25056.54489492 -.00000086  00000+0 -26982-3 0  9997
2 48043  87.8889  54.9757 0001928  89.5886 270.5464 13.13468981190989
ONEWEB-0153             
1 48044U 21025C   25056.52268564  .00000377  00000+0  99695-3 0  9993
2 48044  87.8890  54.9746 0001825  85.6402 274.4936 13.13469128190988
ONEWEB-0154             
1 48045U 21025D   25056.51948493  .00000405  00000+0  10742-2 0  9996
2 48045  87.8887  54.9787 0001913  89.0597 271.0751 13.13472343190948
